NORAD_CAT_ID,OBJECT_NAME,OBJECT_TYPE,EPOCH,MEAN_MOTION,ECCENTRICITY,INCLINATION,RA_OF_ASC_NODE,ARG_OF_PERICENTER,MEAN_ANOMALY,BSTAR,MEAN_MOTION_DOT,MEAN_MOTION_DDOT,TLE_LINE0,TLE_LINE1,TLE_LINE2,SEMIMAJOR_AXIS,PERIOD,APOGEE,PERIGEE,DECAYED
53184.0,STARLINK-4257,PAYLOAD,2024-07-19 10:59:11,15.08858772,0.0001569,53.2169,289.2773,80.3247,279.7923,0.00058803,9.088e-05,0.0,0 STARLINK-4257,1 53184U 22083BE  24201.45777353  .00009088  00000-0  58803-3 0  9998,2 53184  53.2169 289.2773 0001569  80.3247 279.7923 15.08858772111612,6917.823,95.436,540.773,538.603,0.0
53184.0,STARLINK-4257,PAYLOAD,2024-07-20 12:25:21,15.08847953,0.0001337,53.2161,284.5164,82.8816,277.2328,7.7588e-05,9.47e-06,0.0,0 STARLINK-4257,1 53184U 22083BE  24202.51761041  .00000947  00000-0  77588-4 0  9990,2 53184  53.2161 284.5164 0001337  82.8816 277.2328 15.08847953112407,6917.856,95.437,540.646,538.796,0.0
53184.0,STARLINK-4257,PAYLOAD,2024-07-20 21:57:40,15.088464,0.0001359,53.2157,282.7323,75.5273,284.587,3.4242e-05,2.57e-06,0.0,0 STARLINK-4257,1 53184U 22083BE  24202.91504946  .00000257  00000-0  34242-4 0  9997,2 53184  53.2157 282.7323 0001359  75.5273 284.5870 15.08846400111834,6917.861,95.437,540.666,538.786,0.0
53184.0,STARLINK-4257,PAYLOAD,2024-07-21 10:40:46,15.08834384,0.0001574,53.2184,280.3598,89.9893,270.128,-0.00011286,-2.083e-05,0.0,0 STARLINK-4257,1 53184U 22083BE  24203.44498471 -.00002083  00000-0 -11286-3 0  9994,2 53184  53.2184 280.3598 0001574  89.9893 270.1280 15.08834384112541,6917.898,95.438,540.851,538.674,0.0
53184.0,STARLINK-4257,PAYLOAD,2024-07-22 04:10:00,15.0883797,0.0001792,53.2194,277.0867,111.8891,248.2292,0.0001137,1.522e-05,0.0,0 STARLINK-4257,1 53184U 22083BE  24204.17361803  .00001522  00000-0  11370-3 0  9992,2 53184  53.2194 277.0867 0001792 111.8891 248.2292 15.08837970112654,6917.887,95.438,540.991,538.512,0.0
53184.0,STARLINK-4257,PAYLOAD,2024-07-22 10:31:33,15.08841882,0.0001799,53.2175,275.8977,107.4202,252.6987,0.00018063,2.588e-05,0.0,0 STARLINK-4257,1 53184U 22083BE  24204.43857666  .00002588  00000-0  18063-3 0  9997,2 53184  53.2175 275.8977 0001799 107.4202 252.6987 15.08841882112067,6917.875,95.437,540.984,538.495,0.0
53184.0,STARLINK-4257,PAYLOAD,2024-07-23 10:22:19,15.08849928,0.0001642,53.2159,271.4365,102.1291,257.9885,0.00032507,4.891e-05,0.0,0 STARLINK-4257,1 53184U 22083BE  24205.43217435  .00004891  00000-0  32507-3 0  9990,2 53184  53.2159 271.4365 0001642 102.1291 257.9885 15.08849928112849,6917.85,95.437,540.851,538.579,0.0
53184.0,STARLINK-4257,PAYLOAD,2024-07-24 03:51:34,15.0884116,0.0001678,53.215,268.1651,100.2328,259.8853,-2.4704e-05,-6.81e-06,0.0,0 STARLINK-4257,1 53184U 22083BE  24206.16081542 -.00000681  00000-0 -24704-4 0  9995,2 53184  53.2150 268.1651 0001678 100.2328 259.8853 15.08841160112958,6917.877,95.437,540.903,538.581,0.0
53184.0,STARLINK-4257,PAYLOAD,2024-07-24 10:13:07,15.08836109,0.0001406,53.215,266.9724,90.32,269.7954,-9.3549e-05,-1.776e-05,0.0,0 STARLINK-4257,1 53184U 22083BE  24206.42578062 -.00001776  00000-0 -93549-4 0  9991,2 53184  53.2150 266.9724 0001406  90.3200 269.7954 15.08836109112995,6917.892,95.438,540.73,538.785,0.0
53184.0,STARLINK-4257,PAYLOAD,2024-07-25 11:39:16,15.08855415,0.0001569,53.2163,262.2114,118.0347,242.0804,8.5674e-05,1.076e-05,0.0,0 STARLINK-4257,1 53184U 22083BE  24207.48560839  .00001076  00000-0  85674-4 0  9992,2 53184  53.2163 262.2114 0001569 118.0347 242.0804 15.08855415113159,6917.833,95.437,540.784,538.613,0.0
53184.0,STARLINK-4257,PAYLOAD,2024-07-25 13:14:38,15.08871988,0.0001556,53.2157,261.9129,120.5615,239.5531,-9.7885e-05,-1.847e-05,0.0,0 STARLINK-4257,1 53184U 22083BE  24207.55183976 -.00001847  00000-0 -97885-4 0  9998,2 53184  53.2157 261.9129 0001556 120.5615 239.5531 15.08871988113168,6917.783,95.436,540.724,538.571,0.0
53184.0,STARLINK-4257,PAYLOAD,2024-07-26 03:33:08,15.08850563,0.0001525,53.2149,259.2348,118.755,241.3596,0.00018151,2.603e-05,0.0,0 STARLINK-4257,1 53184U 22083BE  24208.14800943  .00002603  00000-0  18151-3 0  9991,2 53184  53.2149 259.2348 0001525 118.7550 241.3596 15.08850563113253,6917.848,95.437,540.768,538.658,0.0
53184.0,STARLINK-4257,PAYLOAD,2024-07-26 11:30:03,15.0885332,0.0001485,53.2155,257.7541,87.6589,272.4573,0.00027939,4.163e-05,0.0,0 STARLINK-4257,1 53184U 22083BE  24208.47920772  .00004163  00000-0  27939-3 0  9997,2 53184  53.2155 257.7541 0001485  87.6589 272.4573 15.08853320112678,6917.84,95.437,540.732,538.677,0.0
53184.0,STARLINK-4257,PAYLOAD,2024-07-27 06:34:41,15.08843826,0.0001486,53.2152,254.1863,108.7632,251.3521,-0.00014164,-2.542e-05,0.0,0 STARLINK-4257,1 53184U 22083BE  24209.27408989 -.00002542  00000-0 -14164-3 0  9994,2 53184  53.2152 254.1863 0001486 108.7632 251.3521 15.08843826112790,6917.869,95.437,540.762,538.706,0.0
53184.0,STARLINK-4257,PAYLOAD,2024-07-27 09:45:27,15.08837733,0.0001566,53.2165,253.5876,95.6567,264.4603,-0.00012616,-2.295e-05,0.0,0 STARLINK-4257,1 53184U 22083BE  24209.40657322 -.00002295  00000-0 -12616-3 0  9991,2 53184  53.2165 253.5876 0001566  95.6567 264.4603 15.08837733113440,6917.887,95.438,540.836,538.669,0.0
53184.0,STARLINK-4257,PAYLOAD,2024-07-27 11:20:51,15.08837377,0.0001446,53.217,253.2904,95.2046,264.9111,-0.00011101,-2.054e-05,0.0,0 STARLINK-4257,1 53184U 22083BE  24209.47281893 -.00002054  00000-0 -11101-3 0  9995,2 53184  53.2170 253.2904 0001446  95.2046 264.9111 15.08837377112824,6917.888,95.438,540.754,538.753,0.0
53184.0,STARLINK-4257,PAYLOAD,2024-07-28 12:47:01,15.08841929,0.0001277,53.2156,248.5364,89.0203,271.0936,-2.0865e-05,-6.2e-06,0.0,0 STARLINK-4257,1 53184U 22083BE  24210.53265534 -.00000620  00000-0 -20865-4 0  9993,2 53184  53.2156 248.5364 0001277  89.0203 271.0936 15.08841929113613,6917.874,95.437,540.623,538.856,0.0
53184.0,STARLINK-4257,PAYLOAD,2024-07-29 11:02:25,15.08834095,0.0001326,53.2158,244.3742,93.2408,266.8735,0.00013737,1.899e-05,0.0,0 STARLINK-4257,1 53184U 22083BE  24211.46002276  .00001899  00000-0  13737-3 0  9994,2 53184  53.2158 244.3742 0001326  93.2408 266.8735 15.08834095113758,6917.898,95.438,540.681,538.846,0.0
53184.0,STARLINK-4257,PAYLOAD,2024-07-29 18:59:21,15.08833529,0.0001298,53.2153,242.8866,91.8731,268.241,0.00012556,1.711e-05,0.0,0 STARLINK-4257,1 53184U 22083BE  24211.79122518  .00001711  00000-0  12556-3 0  9993,2 53184  53.2153 242.8866 0001298  91.8731 268.2410 15.08833529113177,6917.9,95.438,540.663,538.867,0.0
53184.0,STARLINK-4257,PAYLOAD,2024-07-30 09:17:49,15.08840004,0.0001301,53.2153,240.2101,91.1392,268.9749,0.00010599,1.399e-05,0.0,0 STARLINK-4257,1 53184U 22083BE  24212.38738404  .00001399  00000-0  10599-3 0  9993,2 53184  53.2153 240.2101 0001301  91.1392 268.9749 15.08840004113260,6917.88,95.438,540.645,538.845,0.0
53184.0,STARLINK-4257,PAYLOAD,2024-07-30 18:50:08,15.08841917,0.0001275,53.2151,238.4252,85.9124,274.2013,0.00011913,1.609e-05,0.0,0 STARLINK-4257,1 53184U 22083BE  24212.78482313  .00001609  00000-0  11913-3 0  9997,2 53184  53.2151 238.4252 0001275  85.9124 274.2013 15.08841917113952,6917.875,95.437,540.622,538.858,0.0
53184.0,STARLINK-4257,PAYLOAD,2024-07-31 09:08:37,15.08836204,0.0001443,53.216,235.7503,82.9828,277.1328,6.4068e-05,7.32e-06,0.0,0 STARLINK-4257,1 53184U 22083BE  24213.38099095  .00000732  00000-0  64068-4 0  9991,2 53184  53.2160 235.7503 0001443  82.9828 277.1328 15.08836204114041,6917.892,95.438,540.755,538.759,0.0
53184.0,STARLINK-4257,PAYLOAD,2024-07-31 18:40:56,15.08840477,0.0001477,53.2163,233.9665,83.8496,276.2664,9.6227e-05,1.244e-05,0.0,0 STARLINK-4257,1 53184U 22083BE  24213.77842785  .00001244  00000-0  96227-4 0  9997,2 53184  53.2163 233.9665 0001477  83.8496 276.2664 15.08840477113477,6917.879,95.438,540.766,538.722,0.0
53184.0,STARLINK-4257,PAYLOAD,2024-08-01 08:59:23,15.08850173,0.0001429,53.2156,231.2913,82.3855,277.7299,0.00013931,1.93e-05,0.0,0 STARLINK-4257,1 53184U 22083BE  24214.37458010  .00001930  00000-0  13931-3 0  9990,2 53184  53.2156 231.2913 0001429  82.3855 277.7299 15.08850173114190,6917.849,95.437,540.703,538.726,0.0
53184.0,STARLINK-4257,PAYLOAD,2024-08-02 07:14:47,15.08842658,0.0001402,53.2156,227.1266,84.714,275.4012,0.00013119,1.801e-05,0.0,0 STARLINK-4257,1 53184U 22083BE  24215.30194337  .00001801  00000-0  13119-3 0  9998,2 53184  53.2156 227.1266 0001402  84.7140 275.4012 15.08842658114332,6917.872,95.437,540.707,538.767,0.0
53184.0,STARLINK-4257,PAYLOAD,2024-08-02 18:22:29,15.08844772,0.0001427,53.2156,225.0457,82.5813,277.5342,8.7795e-05,1.11e-05,0.0,0 STARLINK-4257,1 53184U 22083BE  24215.76562249  .00001110  00000-0  87795-4 0  9994,2 53184  53.2156 225.0457 0001427  82.5813 277.5342 15.08844772113776,6917.866,95.437,540.718,538.744,0.0
53184.0,STARLINK-4257,PAYLOAD,2024-08-03 07:05:34,15.08844066,0.0001453,53.2156,222.6661,84.8184,275.2973,1.558e-05,-4e-07,0.0,0 STARLINK-4257,1 53184U 22083BE  24216.29554199 -.00000040  00000-0  15580-4 0  9993,2 53184  53.2156 222.6661 0001453  84.8184 275.2973 15.08844066113851,6917.868,95.437,540.738,538.728,0.0
53184.0,STARLINK-4257,PAYLOAD,2024-08-04 03:45:35,15.08839248,0.0001547,53.2162,218.7991,90.0679,270.049,3.3521e-05,2.46e-06,0.0,0 STARLINK-4257,1 53184U 22083BE  24217.15666328  .00000246  00000-0  33521-4 0  9999,2 53184  53.2162 218.7991 0001547  90.0679 270.0490 15.08839248114610,6917.883,95.438,540.818,538.677,0.0
53184.0,STARLINK-4257,PAYLOAD,2024-08-04 05:20:58,15.08839158,0.0001547,53.2161,218.5017,89.9966,270.1203,3.0872e-05,2.03e-06,0.0,0 STARLINK-4257,1 53184U 22083BE  24217.22290333  .00000203  00000-0  30872-4 0  9995,2 53184  53.2161 218.5017 0001547  89.9966 270.1203 15.08839158113995,6917.883,95.438,540.818,538.678,0.0
53184.0,STARLINK-4257,PAYLOAD,2024-08-05 05:11:45,15.08840337,0.0001488,53.2156,214.0411,89.3777,270.7385,7.8363e-05,9.59e-06,0.0,0 STARLINK-4257,1 53184U 22083BE  24218.21650225  .00000959  00000-0  78363-4 0  9990,2 53184  53.2156 214.0411 0001488  89.3777 270.7385 15.08840337114771,6917.879,95.438,540.774,538.715,0.0
